{
  "type": "FeatureCollection",
  "features": [
    {
      "type": "Feature",
      "properties": {
        "norad_id": 41556,
        "name": "ZIYUAN 3-2 (ZY 3-2)",
        "group": "resource",
        "lat": -69.1955023933309,
        "lon": 73.13288050446023,
        "alt_km": 500.65595279151603,
        "timestamp": "2025-12-04T19:33:59.288669+00:00",
        "meta_object_name": "ZIYUAN 3-2 (ZY 3-2)",
        "meta_object_id": "2016-033A",
        "meta_epoch": "2025-12-04T07:14:48.403104",
        "meta_mean_motion": 15.21312826,
        "meta_eccentricity": 0.00124661,
        "meta_inclination": 97.406,
        "meta_ra_of_asc_node": 52.6083,
        "meta_arg_of_pericenter": 282.0849,
        "meta_mean_anomaly": 77.899,
        "meta_ephemeris_type": 0,
        "meta_classification_type": "U",
        "meta_norad_cat_id": 41556,
        "meta_element_set_no": 999,
        "meta_rev_at_epoch": 52835,
        "meta_bstar": 0.00075332793,
        "meta_mean_motion_dot": 0.00016847,
        "meta_mean_motion_ddot": 0,
        "tle_line1": "1 41556U 16033A   25338.30194911  .00016847  00000+0  75333-3 0  9992",
        "tle_line2": "2 41556  97.4060  52.6083 0012466 282.0849  77.8990 15.21312826528359"
      },
      "geometry": {
        "type": "Point",
        "coordinates": [
          73.13288050446023,
          -69.1955023933309
        ]
      }
    },
    {
      "type": "Feature",
      "properties": {
        "norad_id": 41599,
        "name": "CARTOSAT-2C",
        "group": "resource",
        "lat": -63.566432841515116,
        "lon": 51.46711324386495,
        "alt_km": 522.2674139009905,
        "timestamp": "2025-12-04T19:33:59.288678+00:00",
        "meta_object_name": "CARTOSAT-2C",
        "meta_object_id": "2016-040A",
        "meta_epoch": "2025-12-04T15:06:29.580192",
        "meta_mean_motion": 15.19186506,
        "meta_eccentricity": 0.0010994,
        "meta_inclination": 97.4778,
        "meta_ra_of_asc_node": 35.963,
        "meta_arg_of_pericenter": 89.2559,
        "meta_mean_anomaly": 270.9935,
        "meta_ephemeris_type": 0,
        "meta_classification_type": "U",
        "meta_norad_cat_id": 41599,
        "meta_element_set_no": 999,
        "meta_rev_at_epoch": 52417,
        "meta_bstar": 0.00053277,
        "meta_mean_motion_dot": 0.00011165,
        "meta_mean_motion_ddot": 0,
        "tle_line1": "1 41599U 16040A   25338.62950903  .00011165  00000+0  53277-3 0  9994",
        "tle_line2": "2 41599  97.4778  35.9630 0010994  89.2559 270.9935 15.19186506524175"
      },
      "geometry": {
        "type": "Point",
        "coordinates": [
          51.46711324386495,
          -63.566432841515116
        ]
      }
    },
    {
      "type": "Feature",
      "properties": {
        "norad_id": 41601,
        "name": "SKYSAT-C1",
        "group": "resource",
        "lat": -26.246174830130123,
        "lon": 19.742332813603817,
        "alt_km": 473.4499094428338,
        "timestamp": "2025-12-04T19:33:59.288687+00:00",
        "meta_object_name": "SKYSAT-C1",
        "meta_object_id": "2016-040C",
        "meta_epoch": "2025-12-04T02:26:31.439328",
        "meta_mean_motion": 15.32346944,
        "meta_eccentricity": 0.00032533,
        "meta_inclination": 96.9835,
        "meta_ra_of_asc_node": 15.6041,
        "meta_arg_of_pericenter": 37.1796,
        "meta_mean_anomaly": 322.9672,
        "meta_ephemeris_type": 0,
        "meta_classification_type": "U",
        "meta_norad_cat_id": 41601,
        "meta_element_set_no": 999,
        "meta_rev_at_epoch": 52795,
        "meta_bstar": 0.0005787092,
        "meta_mean_motion_dot": 0.00018027,
        "meta_mean_motion_ddot": 0,
        "tle_line1": "1 41601U 16040C   25338.10175277  .00018027  00000+0  57871-3 0  9992",
        "tle_line2": "2 41601  96.9835  15.6041 0003253  37.1796 322.9672 15.32346944527957"
      },
      "geometry": {
        "type": "Point",
        "coordinates": [
          19.742332813603817,
          -26.246174830130123
        ]
      }
    },
    {
      "type": "Feature",
      "properties": {
        "norad_id": 41603,
        "name": "LAPAN-A3",
        "group": "resource",
        "lat": 34.336369243146706,
        "lon": 161.57426960427753,
        "alt_km": 475.1244084759337,
        "timestamp": "2025-12-04T19:33:59.288697+00:00",
        "meta_object_name": "LAPAN-A3",
        "meta_object_id": "2016-040E",
        "meta_epoch": "2025-12-04T07:57:27.091584",
        "meta_mean_motion": 15.31448849,
        "meta_eccentricity": 0.00107194,
        "meta_inclination": 97.1419,
        "meta_ra_of_asc_node": 336.1948,
        "meta_arg_of_pericenter": 4.9729,
        "meta_mean_anomaly": 355.1617,
        "meta_ephemeris_type": 0,
        "meta_classification_type": "U",
        "meta_norad_cat_id": 41603,
        "meta_element_set_no": 999,
        "meta_rev_at_epoch": 52497,
        "meta_bstar": 0.00026453881,
        "meta_mean_motion_dot": 7.974e-05,
        "meta_mean_motion_ddot": 0,
        "tle_line1": "1 41603U 16040E   25338.33156356  .00007974  00000+0  26454-3 0  9998",
        "tle_line2": "2 41603  97.1419 336.1948 0010719   4.9729 355.1617 15.31448849524972"
      },
      "geometry": {
        "type": "Point",
        "coordinates": [
          161.57426960427753,
          34.336369243146706
        ]
      }
    },
    {
      "type": "Feature",
      "properties": {
        "norad_id": 41604,
        "name": "BIROS",
        "group": "resource",
        "lat": 22.140520105119396,
        "lon": -167.1548542607951,
        "alt_km": 310.23266834513015,
        "timestamp": "2025-12-04T19:33:59.288706+00:00",
        "meta_object_name": "BIROS",
        "meta_object_id": "2016-040F",
        "meta_epoch": "2025-12-04T02:15:02.135808",
        "meta_mean_motion": 15.86156799,
        "meta_eccentricity": 0.00027833,
        "meta_inclination": 97.0702,
        "meta_ra_of_asc_node": 9.2033,
        "meta_arg_of_pericenter": 169.6372,
        "meta_mean_anomaly": 190.4958,
        "meta_ephemeris_type": 0,
        "meta_classification_type": "U",
        "meta_norad_cat_id": 41604,
        "meta_element_set_no": 999,
        "meta_rev_at_epoch": 52735,
        "meta_bstar": 0.00085334351,
        "meta_mean_motion_dot": 0.00215032,
        "meta_mean_motion_ddot": 0,
        "tle_line1": "1 41604U 16040F   25338.09377472  .00215032  00000+0  85334-3 0  9994",
        "tle_line2": "2 41604  97.0702   9.2033 0002783 169.6372 190.4958 15.86156799527358"
      },
      "geometry": {
        "type": "Point",
        "coordinates": [
          -167.1548542607951,
          22.140520105119396
        ]
      }
    },
    {
      "type": "Feature",
      "properties": {
        "norad_id": 41727,
        "name": "GAOFEN-3",
        "group": "resource",
        "lat": -53.95953202650008,
        "lon": -3.754751380216115,
        "alt_km": 758.8529480900133,
        "timestamp": "2025-12-04T19:33:59.288727+00:00",
        "meta_object_name": "GAOFEN-3",
        "meta_object_id": "2016-049A",
        "meta_epoch": "2025-12-04T08:09:52.951680",
        "meta_mean_motion": 14.42209931,
        "meta_eccentricity": 0.00015763,
        "meta_inclination": 98.4041,
        "meta_ra_of_asc_node": 344.0546,
        "meta_arg_of_pericenter": 72.4496,
        "meta_mean_anomaly": 287.6866,
        "meta_ephemeris_type": 0,
        "meta_classification_type": "U",
        "meta_norad_cat_id": 41727,
        "meta_element_set_no": 999,
        "meta_rev_at_epoch": 49056,
        "meta_bstar": 3.631629e-06,
        "meta_mean_motion_dot": -3.1e-07,
        "meta_mean_motion_ddot": 0,
        "tle_line1": "1 41727U 16049A   25338.34019620 -.00000031  00000+0  36316-5 0  9995",
        "tle_line2": "2 41727  98.4041 344.0546 0001576  72.4496 287.6866 14.42209931490568"
      },
      "geometry": {
        "type": "Point",
        "coordinates": [
          -3.754751380216115,
          -53.95953202650008
        ]
      }
    },
    {
      "type": "Feature",
      "properties": {
        "norad_id": 41771,
        "name": "SKYSAT-C4",
        "group": "resource",
        "lat": -4.5744689836814,
        "lon": 4.949016364751827,
        "alt_km": 444.45690977877894,
        "timestamp": "2025-12-04T19:33:59.288737+00:00",
        "meta_object_name": "SKYSAT-C4",
        "meta_object_id": "2016-058B",
        "meta_epoch": "2025-12-04T00:53:44.550816",
        "meta_mean_motion": 15.41868582,
        "meta_eccentricity": 7.615e-05,
        "meta_inclination": 96.938,
        "meta_ra_of_asc_node": 3.6509,
        "meta_arg_of_pericenter": 119.4734,
        "meta_mean_anomaly": 240.659,
        "meta_ephemeris_type": 0,
        "meta_classification_type": "U",
        "meta_norad_cat_id": 41771,
        "meta_element_set_no": 999,
        "meta_rev_at_epoch": 51533,
        "meta_bstar": 0.00060994828,
        "meta_mean_motion_dot": 0.00025858,
        "meta_mean_motion_ddot": 0,
        "tle_line1": "1 41771U 16058B   25338.03732119  .00025858  00000+0  60995-3 0  9996",
        "tle_line2": "2 41771  96.9380   3.6509 0000761 119.4734 240.6590 15.41868582515334"
      },
      "geometry": {
        "type": "Point",
        "coordinates": [
          4.949016364751827,
          -4.5744689836814
        ]
      }
    }
  ]
}